NORAD_CAT_ID,OBJECT_NAME,OBJECT_TYPE,EPOCH,MEAN_MOTION,ECCENTRICITY,INCLINATION,RA_OF_ASC_NODE,ARG_OF_PERICENTER,MEAN_ANOMALY,BSTAR,MEAN_MOTION_DOT,MEAN_MOTION_DDOT,TLE_LINE0,TLE_LINE1,TLE_LINE2,SEMIMAJOR_AXIS,PERIOD,APOGEE,PERIGEE,DECAYED
54166.0,STARLINK-5280,PAYLOAD,2022-12-26 14:00:01,15.25526355,0.0001184,53.2167,212.9638,76.5348,322.7786,-0.048712,-0.01154299,0.0,0 STARLINK-5280,1 54166U 22141K   22360.58334491 -.01154299  00000-0 -48712-1 0  9998,2 54166  53.2167 212.9638 0001184  76.5348 322.7786 15.25526355  1304,6867.342,94.394,490.02,488.394,0.0
54166.0,STARLINK-5280,PAYLOAD,2022-12-26 22:00:00,15.24723571,0.000129,53.2169,211.4313,89.0878,341.3642,-0.050689,-0.0117101,0.0,0 STARLINK-5280,1 54166U 22141K   22360.91667824 -.01171010  00000-0 -50689-1 0  9990,2 54166  53.2169 211.4313 0001290  89.0878 341.3642 15.24723571  1301,6869.753000000002,94.443,492.504,490.731,0.0
54166.0,STARLINK-5280,PAYLOAD,2022-12-27 14:00:01,15.23085736,0.0001373,53.2168,208.3666,75.0085,54.8044,-0.052456,-0.01155101,0.0,0 STARLINK-5280,1 54166U 22141K   22361.58334491 -.01155101  00000-0 -52456-1 0  9992,2 54166  53.2168 208.3666 0001373  75.0085  54.8044 15.23085736  9508,6874.677,94.545,497.486,495.598,0.0
54166.0,STARLINK-5280,PAYLOAD,2022-12-27 22:00:00,15.22279939,0.0001436,53.2168,206.84,89.8727,68.1463,-0.054312,-0.01166677,0.0,0 STARLINK-5280,1 54166U 22141K   22361.91667824 -.01166677  00000-0 -54312-1 0  9991,2 54166  53.2168 206.8400 0001436  89.8727  68.1463 15.22279939  1305,6877.102,94.595,499.955,497.98,0.0
54166.0,STARLINK-5280,PAYLOAD,2022-12-28 14:00:01,15.20655895,0.0001383,53.2166,203.7867,80.8352,130.671,-0.057177,-0.01170347,0.0,0 STARLINK-5280,1 54166U 22141K   22362.58334491 -.01170347  00000-0 -57177-1 0  9997,2 54166  53.2166 203.7867 0001383  80.8352 130.6710 15.20655895  9655,6881.998000000001,94.696,504.815,502.911,0.0
54166.0,STARLINK-5280,PAYLOAD,2022-12-28 22:00:00,15.1983725,0.0001347,53.2168,202.2656,100.7053,136.0797,-0.058212,-0.01163792,0.0,0 STARLINK-5280,1 54166U 22141K   22362.91667824 -.01163792  00000-0 -58212-1 0  9990,2 54166  53.2168 202.2656 0001347 100.7053 136.0797 15.19837250  1301,6884.469,94.747,507.261,505.407,0.0
54166.0,STARLINK-5280,PAYLOAD,2022-12-29 14:00:01,15.18204951,0.0001333,53.2167,199.2237,82.9381,201.4712,-0.060633,-0.01156497,0.0,0 STARLINK-5280,1 54166U 22141K   22363.58334491 -.01156497  00000-0 -60633-1 0  9999,2 54166  53.2167 199.2237 0001333  82.9381 201.4712 15.18204951  1309,6889.403,94.849,512.186,510.349,0.0
54166.0,STARLINK-5280,PAYLOAD,2022-12-29 22:00:00,15.17396401,0.000127,53.2169,197.7084,101.5929,205.1567,-0.062523,-0.01164299,0.0,0 STARLINK-5280,1 54166U 22141K   22363.91667824 -.01164299  00000-0 -62523-1 0  9994,2 54166  53.2169 197.7084 0001270 101.5929 205.1567 15.17396401  9869,6891.85,94.899,514.59,512.84,0.0
54166.0,STARLINK-5280,PAYLOAD,2022-12-30 14:00:01,15.15762614,0.0001271,53.2167,194.6778,81.0155,267.4921,-0.064957,-0.01154931,0.0,0 STARLINK-5280,1 54166U 22141K   22364.58334491 -.01154931  00000-0 -64957-1 0  9994,2 54166  53.2167 194.6778 0001271  81.0155 267.4921 15.15762614  1304,6896.801,95.002,519.543,517.79,0.0
54166.0,STARLINK-5280,PAYLOAD,2022-12-30 22:00:00,15.14947593,0.000123,53.2168,193.1682,96.5218,271.3956,-0.0664169999999999,-0.01153823,0.0,0 STARLINK-5280,1 54166U 22141K   22364.91667824 -.01153823  00000-0 -66417-1 0  9992,2 54166  53.2168 193.1682 0001230  96.5218 271.3956 15.14947593 10019,6899.275,95.053,521.988,520.2909999999998,0.0
54166.0,STARLINK-5280,PAYLOAD,2022-12-31 14:00:01,15.13323875,0.0001344,53.2164,190.1491,75.9551,327.8484,-0.069862,-0.01158682,0.0,0 STARLINK-5280,1 54166U 22141K   22365.58334491 -.01158682  00000-0 -69862-1 0  9992,2 54166  53.2164 190.1491 0001344  75.9551 327.8484 15.13323875  1302,6904.209,95.155,527.002,525.146,0.0
54166.0,STARLINK-5280,PAYLOAD,2022-12-31 22:00:00,15.12508683,0.0001294,53.2168,188.6451,90.1177,330.1622,-0.071373,-0.01157009,0.0,0 STARLINK-5280,1 54166U 22141K   22365.91667824 -.01157009  00000-0 -71373-1 0  9990,2 54166  53.2168 188.6451 0001294  90.1177 330.1622 15.12508683  1303,6906.689,95.206,529.448,527.661,0.0
54166.0,STARLINK-5280,PAYLOAD,2023-01-01 14:00:01,15.10905583,0.0001276,53.2162,185.6373,77.0091,13.2794,-0.076972,-0.0119014,0.0,0 STARLINK-5280,1 54166U 22141K   23001.58334491 -.01190140  00000-0 -76972-1 0  9995,2 54166  53.2162 185.6373 0001276  77.0091  13.2794 15.10905583  1303,6911.574000000001,95.307,534.321,532.557,0.0
54166.0,STARLINK-5280,PAYLOAD,2023-01-01 22:00:00,15.10060958,0.0001167,53.2166,184.139,84.7475,19.092,-0.074492,-0.0113003999999999,0.0,0 STARLINK-5280,1 54166U 22141K   23001.91667824 -.01130040  00000-0 -74492-1 0  9999,2 54166  53.2166 184.1390 0001167  84.7475  19.0920 15.10060958 10314,6914.151,95.36,536.823,535.2090000000002,0.0
54166.0,STARLINK-5280,PAYLOAD,2023-01-02 00:00:00,15.0976319,0.0001152,53.2169,183.7637,86.0781,111.0198,-0.0597,-0.00902707,0.0,0 STARLINK-5280,1 54166U 22141K   23002.00001157 -.00902707  00000-0 -59700-1 0  9992,2 54166  53.2169 183.7637 0001152  86.0781 111.0198 15.09763190  1300,6915.06,95.379,537.722,536.128,0.0
54166.0,STARLINK-5280,PAYLOAD,2023-01-02 06:00:00,15.09157442,0.0001236,53.2166,182.6392,74.7227,41.6951,-0.028491,-0.00431063,0.0,0 STARLINK-5280,1 54166U 22141K   23002.25001157 -.00431063  00000-0 -28491-1 0  9994,2 54166  53.2166 182.6392 0001236  74.7227  41.6951 15.09157442 10363,6916.91,95.417,539.63,537.92,0.0
54166.0,STARLINK-5280,PAYLOAD,2023-01-02 14:00:01,15.08863088,0.0001393,53.2124,181.1449,81.6438,46.4385,-0.0001426,-2.558e-05,0.0,0 STARLINK-5280,1 54166U 22141K   23002.58334491 -.00002558  00000-0 -14260-3 0  9994,2 54166  53.2124 181.1449 0001393  81.6438  46.4385 15.08863088 10418,6917.81,95.436,540.638,538.711,0.0
54166.0,STARLINK-5280,PAYLOAD,2023-01-02 22:00:00,15.08826672,0.000143,53.2137,179.6499,71.6505,68.0493,0.0031868,0.00050777,0.0,0 STARLINK-5280,1 54166U 22141K   23002.91667824  .00050777  00000-0  31868-2 0  9996,2 54166  53.2137 179.6499 0001430  71.6505  68.0493 15.08826672  1301,6917.920999999999,95.438,540.775,538.797,0.0
54166.0,STARLINK-5280,PAYLOAD,2023-01-03 04:00:00,15.08881041,0.000145,53.214,178.5262,77.0148,341.375,-0.0063591,-0.0010019999999999,0.0,0 STARLINK-5280,1 54166U 22141K   23003.16667824 -.00100200  00000-0 -63591-2 0  9991,2 54166  53.2140 178.5262 0001450  77.0148 341.3750 15.08881041 10502,6917.755,95.435,540.623,538.617,0.0
54166.0,STARLINK-5280,PAYLOAD,2023-01-03 14:00:01,15.08830506,0.0001571999999999,53.2144,176.6555,81.7232,81.1592,-0.0012610999999999,-0.00020297,0.0,0 STARLINK-5280,1 54166U 22141K   23003.58334491 -.00020297  00000-0 -12611-2 0  9992,2 54166  53.2144 176.6555 0001572  81.7232  81.1592 15.08830506 10560,6917.909000000002,95.438,540.862,538.687,0.0
54166.0,STARLINK-5280,PAYLOAD,2023-01-04 06:00:00,15.08816558,0.0001416999999999,53.2144,173.6624,80.2242,105.813,0.0037292,0.00059525,0.0,0 STARLINK-5280,1 54166U 22141K   23004.25001157  .00059525  00000-0  37292-2 0  9993,2 54166  53.2144 173.6624 0001417  80.2242 105.8130 15.08816558 10661,6917.9519999999975,95.439,540.797,538.837,0.0
54166.0,STARLINK-5280,PAYLOAD,2023-01-04 14:00:01,15.08850968,0.0001557,53.2147,172.1664,80.7391,116.9359,-0.0010611,-0.00017141,0.0,0 STARLINK-5280,1 54166U 22141K   23004.58335648 -.00017141  00000-0 -10611-2 0  9990,2 54166  53.2147 172.1664 0001557  80.7391 116.9359 15.08850968 10712,6917.847,95.437,540.789,538.635,0.0
54166.0,STARLINK-5280,PAYLOAD,2023-01-04 22:00:00,15.08825279,0.000157,53.2145,170.6712,71.9019,137.3206,0.0035283,0.00056291,0.0,0 STARLINK-5280,1 54166U 22141K   23004.91667824  .00056291  00000-0  35283-2 0  9990,2 54166  53.2145 170.6712 0001570  71.9019 137.3206 15.08825279  1301,6917.925,95.438,540.876,538.7040000000002,0.0
54166.0,STARLINK-5280,PAYLOAD,2023-01-05 06:00:00,15.08840805,0.000146,53.2146,169.173,80.5962,140.2328,0.0019727,0.00031248,0.0,0 STARLINK-5280,1 54166U 22141K   23005.25001157  .00031248  00000-0  19727-2 0  9999,2 54166  53.2146 169.1730 0001460  80.5962 140.2328 15.08840805 10812,6917.878000000002,95.438,540.753,538.7330000000002,0.0
54166.0,STARLINK-5280,PAYLOAD,2023-01-05 14:00:01,15.08887248,0.0001475,53.2147,167.6774,81.9061,150.5243,-0.0032224,-0.00051274,0.0,0 STARLINK-5280,1 54166U 22141K   23005.58334491 -.00051274  00000-0 -32224-2 0  9995,2 54166  53.2147 167.6774 0001475  81.9061 150.5243 15.08887248  1301,6917.736,95.435,540.621,538.581,0.0
54166.0,STARLINK-5280,PAYLOAD,2023-01-05 20:00:01,15.0884199,0.0001438,53.2147,166.55599999999995,75.1794,75.9842,-0.00066511,-0.00010858,0.0,0 STARLINK-5280,1 54166U 22141K   23005.83334491 -.00010858  00000-0 -66511-3 0  9993,2 54166  53.2147 166.5560 0001438  75.1794  75.9842 15.08841990  1308,6917.874,95.437,540.734,538.745,0.0
54166.0,STARLINK-5280,PAYLOAD,2023-01-06 11:13:51,15.08840343,0.0001492,53.2163,163.7064,80.4528,279.6632,2.5137e-05,1.12e-06,0.0,0 STARLINK-5280,1 54166U 22141K   23006.46795559  .00000112  00000-0  25137-4 0  9999,2 54166  53.2163 163.7064 0001492  80.4528 279.6632 15.08840343 11007,6917.879,95.438,540.776,538.712,0.0
54166.0,STARLINK-5280,PAYLOAD,2023-01-07 03:07:42,15.08842034,0.0001475,53.2163,160.7342,85.5232,274.5928,1.4119000000000003e-05,-6.3e-07,0.0,0 STARLINK-5280,1 54166U 22141K   23007.13035321 -.00000063  00000-0  14119-4 0  9992,2 54166  53.2163 160.7342 0001475  85.5232 274.5928 15.08842034 11104,6917.874,95.437,540.76,538.719,0.0
54166.0,STARLINK-5280,PAYLOAD,2023-01-07 12:40:01,15.08838143,0.0001452,53.2161,158.9481,83.5728,276.5429,-8.5437e-05,-1.647e-05,0.0,0 STARLINK-5280,1 54166U 22141K   23007.52779808 -.00001647  00000-0 -85437-4 0  9991,2 54166  53.2161 158.9481 0001452  83.5728 276.5429 15.08838143 11168,6917.886,95.438,540.756,538.747,0.0
